NUSAT-1 (FRESCO)        
1 41557U 16033B   22063.49753745  .00007271  00000+0  23845-3 0  9993
2 41557  97.3872 161.2790 0012673  37.2643  21.8014 15.31847155321305
BEESAT-4                
1 41619U 16040W   22062.39304690  .00007000  00000+0  25834-3 0  9999
2 41619  97.2333 116.0117 0011401 129.5759 230.6489 15.28009294304517
CAS-2T & KS-1Q          
1 41847U 16066G   22063.10355495  .00000637  00000+0  10507-3 0  9999
2 41847  98.5648 127.8401 0364963 164.7615 196.4923 14.38389519279205
NAYIF-1 (EO-88)         
1 42017U 17008BX  22063.46026037  .00009315  00000+0  31294-3 0  9990
2 42017  97.2824 131.3131 0004127 258.4294 101.6484 15.31045585280998
ZHUHAI-1 02 (CAS-4B)    
1 42759U 17034B   22063.50158008  .00002068  00000+0  13479-3 0  9994
2 42759  43.0158 190.7900 0009035 341.6908 105.0231 15.10982294260476
ZHUHAI-1 01 (CAS-4A)    
1 42761U 17034D   22063.54603693  .00002341  00000+0  15048-3 0  9994
2 42761  43.0161 189.4107 0009056 342.8042 116.9072 15.11071159260487
MAX VALIER SAT          
1 42778U 17036P   22062.88349363  .00004225  00000+0  17124-3 0  9991
2 42778  97.2214 107.6666 0010676 348.7548  11.3451 15.25125664260804
RADFXSAT (FOX-1B)       
1 43017U 17073E   22063.44231628  .00002056  00000+0  16046-3 0  9998
2 43017  97.6877 321.9255 0252021 171.1096 189.4709 14.80461486231573
FOX-1D (AO-92)          
1 43137U 18004AC  22063.46412464  .00005942  00000+0  22578-3 0  9991
2 43137  97.3783 139.7013 0008601  23.6310 336.5322 15.27149868230304
DIWATA-2B               
1 43678U 18084H   22063.49641437  .00000128  00000+0  18444-4 0  9995
2 43678  97.9514 195.6625 0008597 274.4124  85.6104 14.91938306182203
ES'HAIL 2               
1 43700U 18090A   22063.23938731  .00000128  00000+0  00000+0 0  9990
2 43700   0.0134 133.3265 0002314 240.6202 259.9709  1.00273205 12210
FOX-1CLIFF (AO-95)      
1 43770U 18099N   22063.45400371  .00001609  00000+0  14897-3 0  9992
2 43770  97.6332 132.5180 0013010 266.8678  93.1055 14.95827777177310
ITASAT 1                
1 43786U 18099AE  22063.12605739  .00001391  00000+0  12875-3 0  9990
2 43786  97.6355 133.0540 0013675 260.1098  99.8579 14.96053889177307
JY1SAT (JO-97)          
1 43803U 18099AX  22062.70559344  .00001194  00000+0  11022-3 0  9997
2 43803  97.6320 132.3824 0013659 261.7814  98.1859 14.96410175177253
UWE-4                   
1 43880U 18111E   22062.98084908  .00001210  00000+0  10884-3 0  9990
2 43880  97.6763 331.1481 0011309 321.7145  38.3273 14.97461748171917
NEXUS (FO-99)           
1 43937U 19003F   22063.08623229  .00006744  00000+0  24790-3 0  9999
2 43937  97.1449 100.6630 0022403 165.8112 194.3762 15.27970372173874
PSAT2 (NO-104)          
1 44354U 19036R   22062.68804835  .00051847  00000+0  57846-3 0  9990
2 44354  28.5253 184.4422 0273647 229.8200 127.8138 15.27326244148430
BRICSAT2 (NO-103)       
1 44355U 19036S   22063.33072978  .00168305  13100-5  83371-3 0  9990
2 44355  28.5205  70.3002 0132158  56.6996 304.6192 15.68745052149617
JAISAT-1                
1 44419U 19038F   22062.85420027  .00005278  00000+0  28187-3 0  9993
2 44419  97.6249  32.3605 0021637 133.5254 226.7780 15.15356822147059
DUCHIFAT-3              
1 44854U 19089C   22063.17767059  .00002361  00000+0  19139-3 0  9994
2 44854  36.9675   4.0483 0006765  78.5882 281.5632 15.00219113122111
CAS-6 (TO-108)          
1 44881U 19093C   22063.49679837  .00000285  00000+0  42943-4 0  9993
2 44881  97.9008 144.1958 0015322 162.7784 197.3953 14.81581076119234
RS-44 & BREEZE-KM R/B   
1 44909U 19096E   22062.72307705  .00000044  00000+0  13244-3 0  9998
2 44909  82.5206 300.5378 0216824 206.7218 152.2580 12.79712144101986
ORBITAL FACTORY 2 (OF-2)
1 45113U 19071C   22062.84069967  .00015843  00000+0  39936-3 0  9996
2 45113  51.6392 216.8418 0010377 154.5637 205.5860 15.39990116117077
HUSKYSAT-1 (HO-107)     
1 45119U 19071J   22062.80432758  .00012770  00000+0  32758-3 0  9991
2 45119  51.6395 216.5821 0009951 149.9811 210.1746 15.39655603117062
BY70-2                  
1 45857U 20042B   22063.42806306  .00003347  00000+0  46739-3 0  9997
2 45857  97.9635 141.3788 0012181  98.5056 261.7537 14.78268969 89938
SALSAT                  
1 46495U 20068K   22062.79396335  .00001590  00000+0  11956-3 0  9990
2 46495  97.7191   4.1753 0015449 276.1907  83.7559 15.03935704 78301
BY70-3                  
1 46839U 20079N   22063.48200707  .00011414  00000+0  31370-3 0  9996
2 46839  97.2117 137.2650 0006169   5.1070 123.0241 15.37350945 74093
RADFXSAT-2 (AO-109)     
1 47311U 21002C   22063.05927442  .00005406  00000+0  23605-3 0  9990
2 47311  60.6876  38.3976 0018503 188.9688 171.1071 15.23362326 62405
UVSQ-SAT                
1 47438U 21006AB  22063.12961653  .00003381  00000+0  18811-3 0  9997
2 47438  97.4520 124.3364 0010851 281.5443  78.4571 15.14289106 61332
DIY-1 (ARDUIQUBE)       
1 47963U 21022AH  22062.96632441  .00007444  00000+0  46078-3 0  9999
2 47963  97.5423 325.7847 0019566 131.5909 228.7001 15.09931279 51015
XW-3 (CAS-9)            
1 50466U 21131B   22063.48702012  .00000046  00000+0  29707-4 0  9994
2 50466  98.5883 140.7664 0005778 103.9872 256.1958 14.38445568  9822
